NORAD_CAT_ID,OBJECT_NAME,OBJECT_TYPE,EPOCH,MEAN_MOTION,ECCENTRICITY,INCLINATION,RA_OF_ASC_NODE,ARG_OF_PERICENTER,MEAN_ANOMALY,BSTAR,MEAN_MOTION_DOT,MEAN_MOTION_DDOT,TLE_LINE0,TLE_LINE1,TLE_LINE2,SEMIMAJOR_AXIS,PERIOD,APOGEE,PERIGEE,DECAYED
51991.0,STARLINK-3652,PAYLOAD,2023-03-20 03:52:20,15.08839304,0.0001723,53.216,232.2457,86.8251,273.2939,9.5586e-05,1.233e-05,0.0,0 STARLINK-3652,1 51991U 22025AM  23079.16135376  .00001233  00000-0  95586-4 0  9995,2 51991  53.2160 232.2457 0001723  86.8251 273.2939 15.08839304 58270,6917.883,95.438,540.939,538.556,0.0
51991.0,STARLINK-3652,PAYLOAD,2023-03-20 13:24:39,15.08838076,0.0001433,53.2128,230.4629,85.9955,274.1201,0.00013363,1.839e-05,0.0,0 STARLINK-3652,1 51991U 22025AM  23079.55879394  .00001839  00000-0  13363-3 0  9997,2 51991  53.2128 230.4629 0001433  85.9955 274.1201 15.08838076 57247,6917.886,95.438,540.743,538.76,0.0
51991.0,STARLINK-3652,PAYLOAD,2023-03-20 16:35:26,15.08841385,0.0001491,53.2138,229.8673,89.3804,270.7359,0.00028723,4.286e-05,0.0,0 STARLINK-3652,1 51991U 22025AM  23079.69127404  .00004286  00000-0  28723-3 0  9995,2 51991  53.2138 229.8673 0001491  89.3804 270.7359 15.08841385 57269,6917.876,95.437,540.773,538.71,0.0
51991.0,STARLINK-3652,PAYLOAD,2023-03-21 10:04:40,15.08846361,0.0001368,53.2153,226.5959,85.0568,275.0581,0.00044653,6.827e-05,0.0,0 STARLINK-3652,1 51991U 22025AM  23080.41991397  .00006827  00000-0  44653-3 0  9990,2 51991  53.2153 226.5959 0001368  85.0568 275.0581 15.08846361 58467,6917.861,95.437,540.672,538.78,0.0
51991.0,STARLINK-3652,PAYLOAD,2023-03-21 21:12:22,15.0886635,0.0001384,53.2152,224.5145,72.9564,287.158,0.0011582,0.00018206,0.0,0 STARLINK-3652,1 51991U 22025AM  23080.88358826  .00018206  00000-0  11582-2 0  9993,2 51991  53.2152 224.5145 0001384  72.9564 287.1580 15.08866350 57440,6917.8,95.436,540.622,538.707,0.0
51991.0,STARLINK-3652,PAYLOAD,2023-03-22 17:52:23,15.08851218,0.0001182,53.2155,220.6501,93.3573,266.7554,0.0017615,0.00027866,0.0,0 STARLINK-3652,1 51991U 22025AM  23081.74471257  .00027866  00000-0  17615-2 0  9998,2 51991  53.2155 220.6501 0001182  93.3573 266.7554 15.08851218 58665,6917.846,95.437,540.529,538.893,0.0
51991.0,STARLINK-3652,PAYLOAD,2023-03-23 01:49:18,15.08840632,0.0001224,53.2151,219.1619,85.5331,274.5801,0.00090717,0.00014179,0.0,0 STARLINK-3652,1 51991U 22025AM  23082.07591416  .00014179  00000-0  90717-3 0  9993,2 51991  53.2151 219.1619 0001224  85.5331 274.5801 15.08840632 58712,6917.878,95.438,540.59,538.897,0.0
51991.0,STARLINK-3652,PAYLOAD,2023-03-23 14:32:24,15.08842778,0.0001435,53.2166,216.7843,107.8036,252.3113,0.0008951,0.00013987,0.0,0 STARLINK-3652,1 51991U 22025AM  23082.60583555  .00013987  00000-0  89510-3 0  9992,2 51991  53.2166 216.7843 0001435 107.8036 252.3113 15.08842778 57705,6917.872,95.437,540.73,538.744,0.0
51991.0,STARLINK-3652,PAYLOAD,2023-03-23 16:07:47,15.08849052,0.0001387,53.2163,216.4885,113.9121,246.2016,0.00066992,0.00010392,0.0,0 STARLINK-3652,1 51991U 22025AM  23082.67207367  .00010392  00000-0  66992-3 0  9999,2 51991  53.2163 216.4885 0001387 113.9121 246.2016 15.08849052 57711,6917.853,95.437,540.677,538.758,0.0
51991.0,STARLINK-3652,PAYLOAD,2023-03-24 01:40:05,15.08854219,8.45e-05,53.215,214.7034,85.4221,274.6868,0.00082709,0.00012905,0.0,0 STARLINK-3652,1 51991U 22025AM  23083.06951182  .00012905  00000-0  82709-3 0  9990,2 51991  53.2150 214.7034 0000845  85.4221 274.6868 15.08854219 58864,6917.837,95.437,540.286,539.117,0.0
51991.0,STARLINK-3652,PAYLOAD,2023-03-24 08:01:38,15.08883473,0.0001496,53.2153,213.5138,84.6454,275.4709,0.0025056,0.00039862,0.0,0 STARLINK-3652,1 51991U 22025AM  23083.33447329  .00039862  00000-0  25056-2 0  9995,2 51991  53.2153 213.5138 0001496  84.6454 275.4709 15.08883473 58903,6917.748,95.435,540.647,538.578,0.0
51991.0,STARLINK-3652,PAYLOAD,2023-03-24 14:23:11,15.08843502,0.0001827,53.2159,212.325,86.8507,273.2694,0.00039421,5.992e-05,0.0,0 STARLINK-3652,1 51991U 22025AM  23083.59943647  .00005992  00000-0  39421-3 0  9996,2 51991  53.2159 212.3250 0001827  86.8507 273.2694 15.08843502 57853,6917.87,95.437,540.999,538.471,0.0
51991.0,STARLINK-3652,PAYLOAD,2023-03-24 15:58:34,15.08851383,0.0001192,53.2148,212.0257,69.2658,290.8462,0.00055864,8.617e-05,0.0,0 STARLINK-3652,1 51991U 22025AM  23083.66567233  .00008617  00000-0  55864-3 0  9993,2 51991  53.2148 212.0257 0001192  69.2658 290.8462 15.08851383 58958,6917.846,95.437,540.535,538.886,0.0
51991.0,STARLINK-3652,PAYLOAD,2023-03-24 20:44:42,15.08862653,0.0001113,53.2148,211.1322,115.5401,244.5706,0.00072233,0.00011234,0.0,0 STARLINK-3652,1 51991U 22025AM  23083.86438596  .00011234  00000-0  72233-3 0  9992,2 51991  53.2148 211.1322 0001113 115.5401 244.5706 15.08862653 57896,6917.811,95.436,540.446,538.906,0.0
51991.0,STARLINK-3652,PAYLOAD,2023-03-25 01:30:54,15.08809042,0.0002104,53.2144,210.2436,68.074,292.0476,-0.00068193,-0.00011116,0.0,0 STARLINK-3652,1 51991U 22025AM  23084.06312594 -.00011116  00000-0 -68193-3 0  9995,2 51991  53.2144 210.2436 0002104  68.0740 292.0476 15.08809042 59018,6917.975,95.44,541.296,538.384,0.0
51991.0,STARLINK-3652,PAYLOAD,2023-03-25 20:35:32,15.08813634,0.0001657,53.215,206.6729,58.0309,302.0844,0.00012786,1.746e-05,0.0,0 STARLINK-3652,1 51991U 22025AM  23084.85802072  .00001746  00000-0  12786-3 0  9990,2 51991  53.2150 206.6729 0001657  58.0309 302.0844 15.08813634 58046,6917.961,95.439,540.972,538.68,0.0
51991.0,STARLINK-3652,PAYLOAD,2023-03-26 01:21:41,15.0883055,8.52e-05,53.2152,205.7828,4.1049,355.995,0.0011575,0.00018177,0.0,0 STARLINK-3652,1 51991U 22025AM  23085.05673529  .00018177  00000-0  11575-2 0  9996,2 51991  53.2152 205.7828 0000852   4.1049 355.9950 15.08830550 59162,6917.909,95.438,540.364,539.185,0.0
51991.0,STARLINK-3652,PAYLOAD,2023-03-26 14:04:46,15.08868379,0.0001431,53.2147,203.4024,46.7682,313.3429,0.0017107,0.00027064,0.0,0 STARLINK-3652,1 51991U 22025AM  23085.58665479  .00027064  00000-0  17107-2 0  9991,2 51991  53.2147 203.4024 0001431  46.7682 313.3429 15.08868379 59246,6917.794,95.436,540.649,538.669,0.0
51991.0,STARLINK-3652,PAYLOAD,2023-03-27 01:12:28,15.08872302,0.0001839,53.2146,201.3247,34.6803,325.4309,0.00086339,0.00013492,0.0,0 STARLINK-3652,1 51991U 22025AM  23086.05032774  .00013492  00000-0  86339-3 0  9994,2 51991  53.2146 201.3247 0001839  34.6803 325.4309 15.08872302 59312,6917.782,95.436,540.919,538.374,0.0
51991.0,STARLINK-3652,PAYLOAD,2023-03-27 10:44:46,15.08861263,0.0001611,53.2147,199.5366,56.2096,303.9049,0.00027727,4.13e-05,0.0,0 STARLINK-3652,1 51991U 22025AM  23086.44776487  .00004130  00000-0  27727-3 0  9998,2 51991  53.2147 199.5366 0001611  56.2096 303.9049 15.08861263 59377,6917.815,95.436,540.795,538.566,0.0
51991.0,STARLINK-3652,PAYLOAD,2023-03-27 13:55:33,15.08862627,0.0001666,53.2147,198.9435,48.3796,311.7338,0.0021334,0.0003385,0.0,0 STARLINK-3652,1 51991U 22025AM  23086.58024530  .00033850  00000-0  21334-2 0  9996,2 51991  53.2147 198.9435 0001666  48.3796 311.7338 15.08862627 58301,6917.811,95.436,540.829,538.524,0.0
51991.0,STARLINK-3652,PAYLOAD,2023-03-27 18:41:42,15.08870051,0.0001535,53.2146,198.0492,61.6351,298.4796,0.0016547,0.00026166,0.0,0 STARLINK-3652,1 51991U 22025AM  23086.77896115  .00026166  00000-0  16547-2 0  9995,2 51991  53.2146 198.0492 0001535  61.6351 298.4796 15.08870051 58336,6917.789,95.436,540.715,538.592,0.0
51991.0,STARLINK-3652,PAYLOAD,2023-03-28 10:35:33,15.08850952,0.0001665,53.2156,195.0791,41.2547,318.8571,0.0013303,0.00020954,0.0,0 STARLINK-3652,1 51991U 22025AM  23087.44136447  .00020954  00000-0  13303-2 0  9991,2 51991  53.2156 195.0791 0001665  41.2547 318.8571 15.08850952 59529,6917.847,95.437,540.864,538.56,0.0
51991.0,STARLINK-3652,PAYLOAD,2023-03-28 13:46:19,15.08851409,0.0001429,53.2155,194.4875,71.9128,288.202,0.0010283,0.0001612,0.0,0 STARLINK-3652,1 51991U 22025AM  23087.57384233  .00016120  00000-0  10283-2 0  9997,2 51991  53.2155 194.4875 0001429  71.9128 288.2020 15.08851409 58455,6917.846,95.437,540.699,538.722,0.0
51991.0,STARLINK-3652,PAYLOAD,2023-03-28 18:32:29,15.08870942,0.0001683,53.2141,193.5916,48.7929,311.3208,0.0013433,0.00021173,0.0,0 STARLINK-3652,1 51991U 22025AM  23087.77255804  .00021173  00000-0  13433-2 0  9994,2 51991  53.2141 193.5916 0001683  48.7929 311.3208 15.08870942 58481,6917.786,95.436,540.815,538.487,0.0
51991.0,STARLINK-3652,PAYLOAD,2023-03-29 10:26:20,15.08850635,0.0001437,53.2159,190.6149,61.804,298.3097,0.0012808,0.00020161,0.0,0 STARLINK-3652,1 51991U 22025AM  23088.43496127  .00020161  00000-0  12808-2 0  9994,2 51991  53.2159 190.6149 0001437  61.8040 298.3097 15.08850635 59672,6917.848,95.437,540.707,538.719,0.0
51991.0,STARLINK-3652,PAYLOAD,2023-03-29 12:01:43,15.08855577,0.0001384,53.2151,190.3182,63.066,297.0473,0.0017474,0.00027643,0.0,0 STARLINK-3652,1 51991U 22025AM  23088.50120080  .00027643  00000-0  17474-2 0  9990,2 51991  53.2151 190.3182 0001384  63.0660 297.0473 15.08855577 58595,6917.833,95.437,540.655,538.74,0.0
51991.0,STARLINK-3652,PAYLOAD,2023-03-29 18:23:15,15.08876029,0.0001445,53.2149,189.1283,63.9687,296.1454,0.0022545,0.00035811,0.0,0 STARLINK-3652,1 51991U 22025AM  23088.76615566  .00035811  00000-0  22545-2 0  9997,2 51991  53.2149 189.1283 0001445  63.9687 296.1454 15.08876029 59726,6917.77,95.435,540.635,538.636,0.0
51991.0,STARLINK-3652,PAYLOAD,2023-03-29 23:09:25,15.0883243,4.87e-05,53.216,188.2371,109.8605,250.244,-0.0013338,-0.00021447,0.0,0 STARLINK-3652,1 51991U 22025AM  23088.96487507 -.00021447  00000-0 -13338-2 0  9993,2 51991  53.2160 188.2371 0000487 109.8605 250.2440 15.08832430 59759,6917.904,95.438,540.105,539.432,0.0
51991.0,STARLINK-3652,PAYLOAD,2023-03-30 13:27:53,15.08856837,0.0001146,53.2142,185.5611,87.5553,272.557,0.0018346,0.00029044,0.0,0 STARLINK-3652,1 51991U 22025AM  23089.56103937  .00029044  00000-0  18346-2 0  9995,2 51991  53.2142 185.5611 0001146  87.5553 272.5570 15.08856837 59841,6917.829,95.436,540.487,538.901,0.0
